[{"OBJECT_NAME":"STARLINK-31271","OBJECT_ID":"2024-017B","EPOCH":"2026-03-09T16:39:48.687264","MEAN_MOTION":15.30164711,"ECCENTRICITY":0.00018948,"INCLINATION":53.1612,"RA_OF_ASC_NODE":204.538,"ARG_OF_PERICENTER":45.1159,"MEAN_ANOMALY":314.9995,"EPHEMERIS_TYPE":0,"CLASSIFICATION_TYPE":"U","NORAD_CAT_ID":58827,"ELEMENT_SET_NO":999,"REV_AT_EPOCH":12005,"BSTAR":0.0025908967,"MEAN_MOTION_DOT":0.00077091,"MEAN_MOTION_DDOT":0},{"OBJECT_NAME":"TOMORROW-S2","OBJECT_ID":"2024-149T","EPOCH":"2026-03-09T18:02:42.746496","MEAN_MOTION":15.30674935,"ECCENTRICITY":0.0001648,"INCLINATION":97.3857,"RA_OF_ASC_NODE":150.0385,"ARG_OF_PERICENTER":234.3331,"MEAN_ANOMALY":125.7757,"EPHEMERIS_TYPE":0,"CLASSIFICATION_TYPE":"U","NORAD_CAT_ID":60485,"ELEMENT_SET_NO":999,"REV_AT_EPOCH":8686,"BSTAR":0.00027683033,"MEAN_MOTION_DOT":8.133e-5,"MEAN_MOTION_DDOT":0}]
